{
  "type": "Feature",
  "properties": {
    "name": "First day's walk",
    "source": "Routed on foot over OpenStreetMap data, © OpenStreetMap contributors (ODbL)",
    "stops": ["Cais do Sodré", "Praça do Comércio", "Sé", "Miradouro de Santa Luzia", "Castelo de São Jorge", "Rossio", "Largo do Carmo", "Miradouro de São Pedro de Alcântara"]
  },
  "geometry": {
    "type": "LineString",
    "coordinates": [
      [-9.1455, 38.70579],
      [-9.14527, 38.70579],
      [-9.14524, 38.70576],
      [-9.14523, 38.7059],
      [-9.14495, 38.7059],
      [-9.14494, 38.70616],
      [-9.14489, 38.70618],
      [-9.14428, 38.70617],
      [-9.14378, 38.70681],
      [-9.14321, 38.70684],
      [-9.14273, 38.70695],
      [-9.14271, 38.70691],
      [-9.13779, 38.70809],
      [-9.13757, 38.70811],
      [-9.13748, 38.70791],
      [-9.13728, 38.70795],
      [-9.13663, 38.70747],
      [-9.13655, 38.70775],
      [-9.1371, 38.7092],
      [-9.13639, 38.70937],
      [-9.1364, 38.7094],
      [-9.13624, 38.70944],
      [-9.13626, 38.70947],
      [-9.1345, 38.70985],
      [-9.13448, 38.71011],
      [-9.1336, 38.70978],
      [-9.13346, 38.70981],
      [-9.13331, 38.70998],
      [-9.13318, 38.71004],
      [-9.1324, 38.71008],
      [-9.13215, 38.71006],
      [-9.13214, 38.71013],
      [-9.13205, 38.71019],
      [-9.13132, 38.71047],
      [-9.13083, 38.71074],
      [-9.13061, 38.71101],
      [-9.13056, 38.71114],
      [-9.13041, 38.71114],
      [-9.13039, 38.71146],
      [-9.13029, 38.71155],
      [-9.13012, 38.71152],
      [-9.12995, 38.71179],
      [-9.13024, 38.71205],
      [-9.13045, 38.71186],
      [-9.13094, 38.71189],
      [-9.13147, 38.71201],
      [-9.13192, 38.71237],
      [-9.13259, 38.7122],
      [-9.13297, 38.71218],
      [-9.13304, 38.71248],
      [-9.13289, 38.71278],
      [-9.13327, 38.71326],
      [-9.13346, 38.71317],
      [-9.13327, 38.71326],
      [-9.13289, 38.71278],
      [-9.13304, 38.71248],
      [-9.13297, 38.71218],
      [-9.13264, 38.71222],
      [-9.13259, 38.71218],
      [-9.13286, 38.71209],
      [-9.13283, 38.71183],
      [-9.1329, 38.71147],
      [-9.13391, 38.71162],
      [-9.13433, 38.71183],
      [-9.13445, 38.71194],
      [-9.13454, 38.71216],
      [-9.13462, 38.71217],
      [-9.13539, 38.71266],
      [-9.13567, 38.71266],
      [-9.1357, 38.71274],
      [-9.13577, 38.71272],
      [-9.13578, 38.71282],
      [-9.13579, 38.71271],
      [-9.13618, 38.71276],
      [-9.1365, 38.71354],
      [-9.13852, 38.71306],
      [-9.13878, 38.71312],
      [-9.13888, 38.71309],
      [-9.13896, 38.71326],
      [-9.13906, 38.71332],
      [-9.1391, 38.71371],
      [-9.13927, 38.71388],
      [-9.13937, 38.71392],
      [-9.13948, 38.71387],
      [-9.13949, 38.71377],
      [-9.14073, 38.71344],
      [-9.1408, 38.71348],
      [-9.14076, 38.71343],
      [-9.1409, 38.71334],
      [-9.14092, 38.71248],
      [-9.14084, 38.71223],
      [-9.14114, 38.71211],
      [-9.14104, 38.71194],
      [-9.14155, 38.7126],
      [-9.14234, 38.71328],
      [-9.14276, 38.71305],
      [-9.14285, 38.71308],
      [-9.14329, 38.71304],
      [-9.14389, 38.71393],
      [-9.14406, 38.71429],
      [-9.14372, 38.71498],
      [-9.14401, 38.7155]
    ]
  }
}
